[{"OBJECT_NAME":"TIANMU-1 22","OBJECT_ID":"2023-208D","EPOCH":"2026-03-09T22:39:05.738688","MEAN_MOTION":15.29457749,"ECCENTRICITY":0.00031332,"INCLINATION":97.4379,"RA_OF_ASC_NODE":184.9419,"ARG_OF_PERICENTER":351.9312,"MEAN_ANOMALY":8.1877,"EPHEMERIS_TYPE":0,"CLASSIFICATION_TYPE":"U","NORAD_CAT_ID":58663,"ELEMENT_SET_NO":999,"REV_AT_EPOCH":12215,"BSTAR":0.00038239675,"MEAN_MOTION_DOT":0.00010851,"MEAN_MOTION_DDOT":0},{"OBJECT_NAME":"STARLINK-35563","OBJECT_ID":"2025-236B","EPOCH":"2026-03-09T11:36:44.379936","MEAN_MOTION":15.30195,"ECCENTRICITY":0.00015405,"INCLINATION":53.1602,"RA_OF_ASC_NODE":104.7929,"ARG_OF_PERICENTER":70.0195,"MEAN_ANOMALY":290.0972,"EPHEMERIS_TYPE":0,"CLASSIFICATION_TYPE":"U","NORAD_CAT_ID":66087,"ELEMENT_SET_NO":999,"REV_AT_EPOCH":2285,"BSTAR":0.00096792196,"MEAN_MOTION_DOT":0.00028413,"MEAN_MOTION_DDOT":0}]
